IRIDIUM 136             
1 42962U 17061H   23281.98257115  .00000296  00000+0  98660-4 0  9991
2 42962  86.3928  75.7225 0002281  86.2539 273.8917 14.34221165314054
